[{"OBJECT_NAME":"YAOGAN-43 01F","OBJECT_ID":"2024-148F","EPOCH":"2026-03-10T00:23:08.877408","MEAN_MOTION":15.29824616,"ECCENTRICITY":0.00057048,"INCLINATION":34.9925,"RA_OF_ASC_NODE":59.8891,"ARG_OF_PERICENTER":18.4862,"MEAN_ANOMALY":341.6062,"EPHEMERIS_TYPE":0,"CLASSIFICATION_TYPE":"U","NORAD_CAT_ID":60463,"ELEMENT_SET_NO":999,"REV_AT_EPOCH":8707,"BSTAR":0.00058388219,"MEAN_MOTION_DOT":0.00017308,"MEAN_MOTION_DDOT":0},{"OBJECT_NAME":"STARLINK-32897","OBJECT_ID":"2025-029V","EPOCH":"2026-03-09T17:14:02.444640","MEAN_MOTION":15.30207132,"ECCENTRICITY":0.00016846,"INCLINATION":53.1597,"RA_OF_ASC_NODE":232.2028,"ARG_OF_PERICENTER":20.4546,"MEAN_ANOMALY":339.6522,"EPHEMERIS_TYPE":0,"CLASSIFICATION_TYPE":"U","NORAD_CAT_ID":62967,"ELEMENT_SET_NO":999,"REV_AT_EPOCH":6132,"BSTAR":0.00056297726,"MEAN_MOTION_DOT":0.00016355,"MEAN_MOTION_DDOT":0}]
